VIZARD-METEO (RS38S)    
1 57189U 23091Z   26063.86662737  .00023358  00000+0  74367-3 0  9997
2 57189  97.5206 131.4769 0008981  87.4172 272.8097 15.32537227148697
NANOZOND 1 (RS49S)      
1 57190U 23091AA  26063.78486012  .00233103  00000+0  17099-2 0  9999
2 57190  97.5090 143.6448 0000456  27.7219 332.4068 15.72447637149508
SITRO-AIS 6 (CHIRKIN)   
1 57192U 23091AC  26063.85634427  .00011103  00000+0  45553-3 0  9995
2 57192  97.5193 126.5088 0014168 110.6582 249.6176 15.24320074148380
SITRO-AIS 8 (ANOKHIN)   
1 57193U 23091AD  26063.88556216  .00019467  00000+0  68788-3 0  9994
2 57193  97.5179 128.1241 0012653 108.1893 252.0725 15.29163001148498
SITRO-AIS 7 (FARTUSHNIY)
1 57194U 23091AE  26063.84009644  .00009466  00000+0  39173-3 0  9993
2 57194  97.5193 126.3657 0014033 111.5624 248.7110 15.24075496148372
AVION KALUGA 650        
1 57195U 23091AF  26063.87015384  .00008583  00000+0  41094-3 0  9999
2 57195  97.5224 123.8905 0012157 112.2885 247.9640 15.19133948148187
HORS 2                  
1 57196U 23091AG  26063.88612051  .00018845  00000+0  66790-3 0  9997
2 57196  97.5209 129.6506 0009966  94.6246 265.6132 15.29100600148576
A-SEANSAT-PG1           
1 57197U 23091AH  26063.84861370  .00023164  00000+0  72283-3 0  9998
2 57197  97.5199 131.4416 0009109  94.2661 265.9622 15.33180052148708
SITRO-AIS 10 (BURDAEV)  
1 57199U 23091AK  26063.86233209  .00028397  00000+0  84905-3 0  9993
2 57199  97.5195 132.1770 0008449  90.1784 270.0427 15.34501196148745
SITRO-AIS 9 (SHCHUKIN)  
1 57201U 23091AM  26063.85938543  .00026939  00000+0  81505-3 0  9992
2 57201  97.5193 131.9759 0008629  89.8465 270.3766 15.34135297148735
UTMN 2 (RS27S)          
1 57203U 23091AP  26063.86136576  .00019863  00000+0  69922-3 0  9998
2 57203  97.5207 129.7884 0009873  91.3899 268.8471 15.29312497148589
SITRO-AIS 12 (SMIRENNIY)
1 57204U 23091AQ  26063.86845948  .00024023  00000+0  72190-3 0  9994
2 57204  97.5204 132.3917 0008306  85.4296 274.7895 15.34377280148751
SITRO-AIS 11 (SHEFFER)  
1 57208U 23091AU  26063.84271557  .00027156  00000+0  80677-3 0  9994
2 57208  97.5202 132.5529 0008178  85.3000 274.9177 15.34715030148768
H2SAT (HEINRICH HERTZ)  
1 57213U 23093A   26063.38239013 -.00000010  00000+0  00000+0 0  9991
2 57213   0.0499 296.1586 0001180 176.6606 187.6569  1.00270890  9863
KUZGTU 1 (RS47S)        
1 57217U 23091AV  26063.82252855  .00017298  00000+0  64711-3 0  9999
2 57217  97.5191 127.3717 0013029 105.2296 255.0384 15.27307920148437
QIANKUN-1               
1 57422U 23103B   26063.53911761  .00000477  16856-5  11119-5 0  9996
2 57422  96.1940 115.4027 0026181 168.6193 191.5691 16.08867585150487
