[{"OBJECT_NAME":"VIZARD-METEO (RS38S)","OBJECT_ID":"2023-091Z","EPOCH":"2026-03-04T20:47:56.604768","MEAN_MOTION":15.32537227,"ECCENTRICITY":0.0008981,"INCLINATION":97.5206,"RA_OF_ASC_NODE":131.4769,"ARG_OF_PERICENTER":87.4172,"MEAN_ANOMALY":272.8097,"EPHEMERIS_TYPE":0,"CLASSIFICATION_TYPE":"U","NORAD_CAT_ID":57189,"ELEMENT_SET_NO":999,"REV_AT_EPOCH":14869,"BSTAR":0.00074367,"MEAN_MOTION_DOT":0.00023358,"MEAN_MOTION_DDOT":0},{"OBJECT_NAME":"NANOZOND 1 (RS49S)","OBJECT_ID":"2023-091AA","EPOCH":"2026-03-04T18:50:11.914368","MEAN_MOTION":15.72447637,"ECCENTRICITY":4.56e-5,"INCLINATION":97.509,"RA_OF_ASC_NODE":143.6448,"ARG_OF_PERICENTER":27.7219,"MEAN_ANOMALY":332.4068,"EPHEMERIS_TYPE":0,"CLASSIFICATION_TYPE":"U","NORAD_CAT_ID":57190,"ELEMENT_SET_NO":999,"REV_AT_EPOCH":14950,"BSTAR":0.0017099,"MEAN_MOTION_DOT":0.00233103,"MEAN_MOTION_DDOT":0},{"OBJECT_NAME":"SITRO-AIS 6 (CHIRKIN)","OBJECT_ID":"2023-091AC","EPOCH":"2026-03-04T20:33:08.144928","MEAN_MOTION":15.24320074,"ECCENTRICITY":0.0014168,"INCLINATION":97.5193,"RA_OF_ASC_NODE":126.5088,"ARG_OF_PERICENTER":110.6582,"MEAN_ANOMALY":249.6176,"EPHEMERIS_TYPE":0,"CLASSIFICATION_TYPE":"U","NORAD_CAT_ID":57192,"ELEMENT_SET_NO":999,"REV_AT_EPOCH":14838,"BSTAR":0.00045553,"MEAN_MOTION_DOT":0.00011103,"MEAN_MOTION_DDOT":0},{"OBJECT_NAME":"SITRO-AIS 8 (ANOKHIN)","OBJECT_ID":"2023-091AD","EPOCH":"2026-03-04T21:15:12.570624","MEAN_MOTION":15.29163001,"ECCENTRICITY":0.0012653,"INCLINATION":97.5179,"RA_OF_ASC_NODE":128.1241,"ARG_OF_PERICENTER":108.1893,"MEAN_ANOMALY":252.0725,"EPHEMERIS_TYPE":0,"CLASSIFICATION_TYPE":"U","NORAD_CAT_ID":57193,"ELEMENT_SET_NO":999,"REV_AT_EPOCH":14849,"BSTAR":0.00068788,"MEAN_MOTION_DOT":0.00019467,"MEAN_MOTION_DDOT":0},{"OBJECT_NAME":"SITRO-AIS 7 (FARTUSHNIY)","OBJECT_ID":"2023-091AE","EPOCH":"2026-03-04T20:09:44.332416","MEAN_MOTION":15.24075496,"ECCENTRICITY":0.0014033,"INCLINATION":97.5193,"RA_OF_ASC_NODE":126.3657,"ARG_OF_PERICENTER":111.5624,"MEAN_ANOMALY":248.711,"EPHEMERIS_TYPE":0,"CLASSIFICATION_TYPE":"U","NORAD_CAT_ID":57194,"ELEMENT_SET_NO":999,"REV_AT_EPOCH":14837,"BSTAR":0.00039173,"MEAN_MOTION_DOT":9.466e-5,"MEAN_MOTION_DDOT":0},{"OBJECT_NAME":"AVION KALUGA 650","OBJECT_ID":"2023-091AF","EPOCH":"2026-03-04T20:53:01.291776","MEAN_MOTION":15.19133948,"ECCENTRICITY":0.0012157,"INCLINATION":97.5224,"RA_OF_ASC_NODE":123.8905,"ARG_OF_PERICENTER":112.2885,"MEAN_ANOMALY":247.964,"EPHEMERIS_TYPE":0,"CLASSIFICATION_TYPE":"U","NORAD_CAT_ID":57195,"ELEMENT_SET_NO":999,"REV_AT_EPOCH":14818,"BSTAR":0.00041094,"MEAN_MOTION_DOT":8.583e-5,"MEAN_MOTION_DDOT":0},{"OBJECT_NAME":"HORS 2","OBJECT_ID":"2023-091AG","EPOCH":"2026-03-04T21:16:00.812064","MEAN_MOTION":15.291006,"ECCENTRICITY":0.0009966,"INCLINATION":97.5209,"RA_OF_ASC_NODE":129.6506,"ARG_OF_PERICENTER":94.6246,"MEAN_ANOMALY":265.6132,"EPHEMERIS_TYPE":0,"CLASSIFICATION_TYPE":"U","NORAD_CAT_ID":57196,"ELEMENT_SET_NO":999,"REV_AT_EPOCH":14857,"BSTAR":0.0006679,"MEAN_MOTION_DOT":0.00018845,"MEAN_MOTION_DDOT":0},{"OBJECT_NAME":"A-SEANSAT-PG1","OBJECT_ID":"2023-091AH","EPOCH":"2026-03-04T20:22:00.223680","MEAN_MOTION":15.33180052,"ECCENTRICITY":0.0009109,"INCLINATION":97.5199,"RA_OF_ASC_NODE":131.4416,"ARG_OF_PERICENTER":94.2661,"MEAN_ANOMALY":265.9622,"EPHEMERIS_TYPE":0,"CLASSIFICATION_TYPE":"U","NORAD_CAT_ID":57197,"ELEMENT_SET_NO":999,"REV_AT_EPOCH":14870,"BSTAR":0.00072283,"MEAN_MOTION_DOT":0.00023164,"MEAN_MOTION_DDOT":0},{"OBJECT_NAME":"SITRO-AIS 10 (BURDAEV)","OBJECT_ID":"2023-091AK","EPOCH":"2026-03-04T20:41:45.492576","MEAN_MOTION":15.34501196,"ECCENTRICITY":0.0008449,"INCLINATION":97.5195,"RA_OF_ASC_NODE":132.177,"ARG_OF_PERICENTER":90.1784,"MEAN_ANOMALY":270.0427,"EPHEMERIS_TYPE":0,"CLASSIFICATION_TYPE":"U","NORAD_CAT_ID":57199,"ELEMENT_SET_NO":999,"REV_AT_EPOCH":14874,"BSTAR":0.00084905,"MEAN_MOTION_DOT":0.00028397,"MEAN_MOTION_DDOT":0},{"OBJECT_NAME":"SITRO-AIS 9 (SHCHUKIN)","OBJECT_ID":"2023-091AM","EPOCH":"2026-03-04T20:37:30.901152","MEAN_MOTION":15.34135297,"ECCENTRICITY":0.0008629,"INCLINATION":97.5193,"RA_OF_ASC_NODE":131.9759,"ARG_OF_PERICENTER":89.8465,"MEAN_ANOMALY":270.3766,"EPHEMERIS_TYPE":0,"CLASSIFICATION_TYPE":"U","NORAD_CAT_ID":57201,"ELEMENT_SET_NO":999,"REV_AT_EPOCH":14873,"BSTAR":0.00081505,"MEAN_MOTION_DOT":0.00026939,"MEAN_MOTION_DDOT":0},{"OBJECT_NAME":"UTMN 2 (RS27S)","OBJECT_ID":"2023-091AP","EPOCH":"2026-03-04T20:40:22.001664","MEAN_MOTION":15.29312497,"ECCENTRICITY":0.0009873,"INCLINATION":97.5207,"RA_OF_ASC_NODE":129.7884,"ARG_OF_PERICENTER":91.3899,"MEAN_ANOMALY":268.8471,"EPHEMERIS_TYPE":0,"CLASSIFICATION_TYPE":"U","NORAD_CAT_ID":57203,"ELEMENT_SET_NO":999,"REV_AT_EPOCH":14858,"BSTAR":0.00069922,"MEAN_MOTION_DOT":0.00019863,"MEAN_MOTION_DDOT":0},{"OBJECT_NAME":"SITRO-AIS 12 (SMIRENNIY)","OBJECT_ID":"2023-091AQ","EPOCH":"2026-03-04T20:50:34.899072","MEAN_MOTION":15.3437728,"ECCENTRICITY":0.0008306,"INCLINATION":97.5204,"RA_OF_ASC_NODE":132.3917,"ARG_OF_PERICENTER":85.4296,"MEAN_ANOMALY":274.7895,"EPHEMERIS_TYPE":0,"CLASSIFICATION_TYPE":"U","NORAD_CAT_ID":57204,"ELEMENT_SET_NO":999,"REV_AT_EPOCH":14875,"BSTAR":0.0007219,"MEAN_MOTION_DOT":0.00024023,"MEAN_MOTION_DDOT":0},{"OBJECT_NAME":"SITRO-AIS 11 (SHEFFER)","OBJECT_ID":"2023-091AU","EPOCH":"2026-03-04T20:13:30.625248","MEAN_MOTION":15.3471503,"ECCENTRICITY":0.0008178,"INCLINATION":97.5202,"RA_OF_ASC_NODE":132.5529,"ARG_OF_PERICENTER":85.3,"MEAN_ANOMALY":274.9177,"EPHEMERIS_TYPE":0,"CLASSIFICATION_TYPE":"U","NORAD_CAT_ID":57208,"ELEMENT_SET_NO":999,"REV_AT_EPOCH":14876,"BSTAR":0.00080677,"MEAN_MOTION_DOT":0.00027156,"MEAN_MOTION_DDOT":0},{"OBJECT_NAME":"H2SAT (HEINRICH HERTZ)","OBJECT_ID":"2023-093A","EPOCH":"2026-03-04T09:10:38.507232","MEAN_MOTION":1.0027089,"ECCENTRICITY":0.00011802,"INCLINATION":0.0499,"RA_OF_ASC_NODE":296.1586,"ARG_OF_PERICENTER":176.6606,"MEAN_ANOMALY":187.6569,"EPHEMERIS_TYPE":0,"CLASSIFICATION_TYPE":"U","NORAD_CAT_ID":57213,"ELEMENT_SET_NO":999,"REV_AT_EPOCH":986,"BSTAR":0,"MEAN_MOTION_DOT":-1.0e-7,"MEAN_MOTION_DDOT":0},{"OBJECT_NAME":"KUZGTU 1 (RS47S)","OBJECT_ID":"2023-091AV","EPOCH":"2026-03-04T19:44:26.466720","MEAN_MOTION":15.2730792,"ECCENTRICITY":0.0013029,"INCLINATION":97.5191,"RA_OF_ASC_NODE":127.3717,"ARG_OF_PERICENTER":105.2296,"MEAN_ANOMALY":255.0384,"EPHEMERIS_TYPE":0,"CLASSIFICATION_TYPE":"U","NORAD_CAT_ID":57217,"ELEMENT_SET_NO":999,"REV_AT_EPOCH":14843,"BSTAR":0.00064711,"MEAN_MOTION_DOT":0.00017298,"MEAN_MOTION_DDOT":0},{"OBJECT_NAME":"QIANKUN-1","OBJECT_ID":"2023-103B","EPOCH":"2026-03-04T12:56:19.761504","MEAN_MOTION":16.08867585,"ECCENTRICITY":0.0026181,"INCLINATION":96.194,"RA_OF_ASC_NODE":115.4027,"ARG_OF_PERICENTER":168.6193,"MEAN_ANOMALY":191.5691,"EPHEMERIS_TYPE":0,"CLASSIFICATION_TYPE":"U","NORAD_CAT_ID":57422,"ELEMENT_SET_NO":999,"REV_AT_EPOCH":15048,"BSTAR":1.1119e-6,"MEAN_MOTION_DOT":4.77e-6,"MEAN_MOTION_DDOT":1.6856e-6}]
